     3.00           N                   E                   RINEX VERSION / TYPE
BRD_USR             ESA                 20190115 141639  UTCPGM / RUN BY / DATE
 GAL   3.5750E+01  1.3672E-01 -6.1035E-05  0.0000E+00       IONOSPHERIC CORR
GAUT  1.8626451492E-09-8.881784197E-16 172800 2036 GSTB   0 TIME SYSTEM CORR
GPGA -1.4551915228E-09-1.110223025E-14 172800 2036 GSTB   0 TIME SYSTEM CORR
                                                            END OF HEADER
E19 2019 01 15 11 40 00-9.104376658797E-06 2.984279490192E-13 0.000000000000E+00
     1.020000000000E+02-4.200000000000E+01 3.382283742837E-09-2.049919829263E+00
    -1.952052116394E-06 1.321230083704E-04 8.199363946915E-06 5.440616783142E+03
     2.148000000000E+05-5.215406417847E-08 1.116349213843E+00-2.607703208923E-08
     9.581915266946E-01 1.606875000000E+02 2.388503559698E+00-5.670236188097E-09
    -2.885834492304E-10 2.580000000000E+02 2.036000000000E+03 0.000000000000E+00
     3.120000000000E+00 0.000000000000E+00-8.614733815193E-09 0.000000000000E+00
     2.160000000000E+05 0.000000000000E+00 0.000000000000E+00 0.000000000000E+00
E21 2019 01 15 11 20 00-5.145443719812E-04-1.946887095983E-12 0.000000000000E+00
     1.000000000000E+02 8.796875000000E+01 2.778330014311E-09-1.799757276966E+00
     4.092231392860E-06 4.304002504796E-05 4.503875970840E-06 5.440627067566E+03
     2.136000000000E+05-2.980232238770E-08-3.073627693022E+00-1.490116119385E-08
     9.896640806242E-01 2.581250000000E+02 6.219095120675E-01-5.598447483524E-09
     4.535903224290E-11 2.580000000000E+02 2.036000000000E+03 0.000000000000E+00
     3.120000000000E+00 0.000000000000E+00-2.328306436539E-09 0.000000000000E+00
     2.160000000000E+05 0.000000000000E+00 0.000000000000E+00 0.000000000000E+00
E24 2019 01 15 10 30 00 6.284912407864E-03-1.963940121641E-11 0.000000000000E+00
     9.500000000000E+01 8.368750000000E+01 2.894763435659E-09 1.822887185060E+00
     3.919005393982E-06 4.785950295627E-04 3.984197974205E-06 5.440616540909E+03
     2.106000000000E+05 2.235174179077E-08-3.067545994392E+00-8.195638656616E-08
     9.876678703884E-01 2.691250000000E+02 5.338909977430E-01-5.732381633847E-09
     4.785913638228E-11 2.580000000000E+02 2.036000000000E+03 0.000000000000E+00
     3.120000000000E+00 0.000000000000E+00 4.260800778866E-08 0.000000000000E+00
     2.160000000000E+05 0.000000000000E+00 0.000000000000E+00 0.000000000000E+00
E25 2019 01 15 11 40 00 1.923171861563E-03-1.128341864387E-11 0.000000000000E+00
     1.020000000000E+02 9.168750000000E+01 2.896192066596E-09-2.806993123491E+00
     4.205852746964E-06 1.752021489665E-04 4.295259714127E-06 5.440624643326E+03
     2.148000000000E+05 4.656612873077E-08-3.073643161918E+00-8.195638656616E-08
     9.896698108744E-01 2.646875000000E+02-1.362072403714E+00-5.709880696593E-09
    -3.571577341961E-13 2.580000000000E+02 2.036000000000E+03 0.000000000000E+00
     3.120000000000E+00 0.000000000000E+00-1.164153218269E-09 0.000000000000E+00
     2.160000000000E+05 0.000000000000E+00 0.000000000000E+00 0.000000000000E+00
E26 2019 01 15 11 40 00 5.017198738642E-03-4.337152859080E-11 0.000000000000E+00
     1.020000000000E+02-5.087500000000E+01 2.744400029563E-09-1.161305262808E+00
    -2.289190888405E-06 3.176708705723E-04 9.018927812576E-06 5.440612552643E+03
     2.148000000000E+05 1.117587089539E-08-9.821060006799E-01-9.313225746155E-09
     9.783533788138E-01 1.575312500000E+02-1.971491551942E+00-5.424868824704E-09
     2.467959943295E-10 2.580000000000E+02 2.036000000000E+03 0.000000000000E+00
     3.120000000000E+00 0.000000000000E+00 1.164153218269E-09 0.000000000000E+00
     2.160000000000E+05 0.000000000000E+00 0.000000000000E+00 0.000000000000E+00
E27 2019 01 15 11 20 00 5.492788623087E-04-7.688072400924E-12 0.000000000000E+00
     1.000000000000E+02 9.790625000000E+01 2.870119552000E-09 4.332403613543E-01
     4.503875970840E-06 1.687927870080E-04 4.677101969719E-06 5.440622411728E+03
     2.136000000000E+05 3.725290298462E-08-3.073611712105E+00 2.421438694000E-08
     9.896364738972E-01 2.521250000000E+02-8.242051331892E-01-5.627734417728E-09
     6.464554988949E-11 2.580000000000E+02 2.036000000000E+03 0.000000000000E+00
     3.120000000000E+00 0.000000000000E+00-2.561137080193E-09 0.000000000000E+00
     2.160000000000E+05 0.000000000000E+00 0.000000000000E+00 0.000000000000E+00
E30 2019 01 15 11 40 00 5.186719878111E-03-3.049649421882E-11 0.000000000000E+00
     1.020000000000E+02 1.039687500000E+02 2.850475876619E-09-1.094848651241E-01
     4.811212420464E-06 3.127296222374E-04 4.420056939125E-06 5.440614019394E+03
     2.148000000000E+05-3.725290298462E-08-3.067625764389E+00 2.980232238770E-08
     9.876524029555E-01 2.579062500000E+02 6.332703890422E-01-5.684879655199E-09
     1.071473202588E-10 2.580000000000E+02 2.036000000000E+03 0.000000000000E+00
     3.120000000000E+00 0.000000000000E+00-3.026798367500E-09 0.000000000000E+00
     2.160000000000E+05 0.000000000000E+00 0.000000000000E+00 0.000000000000E+00
E31 2019 01 15 11 20 00 9.320789249614E-04-9.691802915768E-12 0.000000000000E+00
     1.000000000000E+02 8.115625000000E+01 2.809759894921E-09-1.188070814913E+00
     3.835186362267E-06 2.134756650776E-04 4.339963197708E-06 5.440624292374E+03
     2.136000000000E+05 6.146728992462E-08-3.073660967094E+00 4.470348358154E-08
     9.896397844808E-01 2.622500000000E+02-1.559045491451E+00-5.643092200298E-09
     5.250218692682E-11 2.580000000000E+02 2.036000000000E+03 0.000000000000E+00
     3.120000000000E+00 0.000000000000E+00-2.328306436539E-10 0.000000000000E+00
     2.160000000000E+05 0.000000000000E+00 0.000000000000E+00 0.000000000000E+00
E33 2019 01 15 11 20 00 8.479232201353E-04 4.263256414561E-14 0.000000000000E+00
     1.000000000000E+02-4.393750000000E+01 2.648324599064E-09-2.666713453902E+00
    -2.017244696617E-06 3.741479013115E-04 8.961185812950E-06 5.440601350784E+03
     2.136000000000E+05-2.048909664154E-08-9.910297526871E-01 1.862645149231E-09
     9.852325462730E-01 1.579375000000E+02-1.406225045866E+00-5.413082619476E-09
     2.464388365953E-10 2.580000000000E+02 2.036000000000E+03 0.000000000000E+00
     3.120000000000E+00 5.600000000000E+01-8.381903171539E-09 0.000000000000E+00
     2.160000000000E+05 0.000000000000E+00 0.000000000000E+00 0.000000000000E+00
E36 2019 01 15 11 40 00 7.593959453516E-04-4.476419235289E-12 0.000000000000E+00
     1.020000000000E+02-5.078125000000E+01 2.675111429129E-09 1.509611987136E+00
    -2.320855855942E-06 3.384751034901E-04 1.046247780323E-05 5.440604202271E+03
     2.148000000000E+05 3.725290298462E-09-9.910098262799E-01 2.607703208923E-08
     9.852410575304E-01 1.278750000000E+02-1.505150225971E+00-5.414868408147E-09
     2.950122884460E-10 2.580000000000E+02 2.036000000000E+03 0.000000000000E+00
     3.120000000000E+00 5.600000000000E+01 9.313225746155E-10 0.000000000000E+00
     2.160000000000E+05 0.000000000000E+00 0.000000000000E+00 0.000000000000E+00
E01 2019 01 15 11 10 00-5.212373798713E-04-8.085976332950E-12 0.000000000000E+00
     9.900000000000E+01 8.396875000000E+01 2.739399821284E-09-1.465634996095E+00
     3.965571522713E-06 8.057930972427E-05 4.582107067108E-06 5.440618999481E+03
     2.130000000000E+05-1.862645149231E-08-3.071015240249E+00 3.166496753693E-08
     9.901012034722E-01 2.567812500000E+02-5.878471732800E-01-5.599161798992E-09
     2.357241045694E-11 5.210000000000E+02 2.036000000000E+03 0.000000000000E+00
     3.120000000000E+00 0.000000000000E+00-4.656612873077E-09-5.122274160385E-09
     2.160250000000E+05 0.000000000000E+00 0.000000000000E+00 0.000000000000E+00
E02 2019 01 15 11 10 00 4.342256579548E-05 1.591615728103E-12 0.000000000000E+00
     9.900000000000E+01 9.918750000000E+01 2.796545058755E-09 1.201860977077E+00
     4.662200808525E-06 2.522786380723E-04 4.380941390991E-06 5.440616176605E+03
     2.130000000000E+05-1.005828380585E-07-3.071048079834E+00-1.117587089539E-08
     9.901093402225E-01 2.607500000000E+02-1.154677509524E-01-5.633448941475E-09
     8.786080261224E-11 5.210000000000E+02 2.036000000000E+03 0.000000000000E+00
     3.120000000000E+00 0.000000000000E+00-6.053596735001E-09-7.683411240578E-09
     2.160250000000E+05 0.000000000000E+00 0.000000000000E+00 0.000000000000E+00
E03 2019 01 15 11 40 00-1.224286970682E-04-4.263256414561E-12 0.000000000000E+00
     1.020000000000E+02-4.634375000000E+01 3.524789678781E-09 2.785381659995E+00
    -2.237036824226E-06 2.563336165622E-04 8.609145879745E-06 5.440612850189E+03
     2.148000000000E+05 7.450580596924E-09 1.119596485288E+00-4.656612873077E-08
     9.524192367013E-01 1.476250000000E+02 6.150812366024E-01-5.728452898771E-09
    -3.893019302737E-10 5.210000000000E+02 2.036000000000E+03 0.000000000000E+00
     3.120000000000E+00 0.000000000000E+00-1.862645149231E-09-2.095475792885E-09
     2.160250000000E+05 0.000000000000E+00 0.000000000000E+00 0.000000000000E+00
E04 2019 01 15 10 50 00-2.004862180911E-04-7.858602657507E-12 0.000000000000E+00
     9.700000000000E+01-3.243750000000E+01 3.473001807323E-09-3.051215872897E+00
    -1.544132828712E-06 7.235410157591E-05 8.670613169670E-06 5.440613945007E+03
     2.118000000000E+05-2.793967723846E-08 1.119662818382E+00 4.097819328308E-08
     9.524632939421E-01 1.515000000000E+02 2.157308375204E+00-5.670950503565E-09
    -2.678683006471E-10 5.210000000000E+02 2.036000000000E+03 0.000000000000E+00
     3.120000000000E+00 0.000000000000E+00-7.916241884232E-09-8.847564458847E-09
     2.160250000000E+05 0.000000000000E+00 0.000000000000E+00 0.000000000000E+00
